COSMOS 2361             
1 25590U 98076A   08107.90353379  .00000056  00000-0  44494-4 0  7073
2 25590  82.9301  69.9818 0030888 185.7638 174.3164 13.72685545466549
COSMOS 2378             
1 26818U 01023A   08106.95874549  .00000025  00000-0  10505-4 0  7087
2 26818  82.9224  98.4050 0033165 157.0805 203.1843 13.73722820343673
COSMOS 2389             
1 27436U 02026A   08107.46431689  .00000051  00000-0  37501-4 0  4226
2 27436  82.9507  38.2111 0048030  52.1715 308.3779 13.74720925295347
COSMOS 2398             
1 27818U 03023A   08107.07675273  .00000029  00000-0  15284-4 0  2940
2 27818  82.9492 343.3519 0032326  22.1269 338.1270 13.71943284243687
COSMOS 2407             
1 28380U 04028A   08107.11497018  .00000007  00000-0 -88605-5 0  1118
2 28380  82.9572 306.8424 0040883  84.4855 276.0968 13.75830515187462
COSMOS 2414             
1 28521U 05002A   08107.85970845 -.00000038  00000-0 -45812-4 0    30
2 28521  82.9515  19.2383 0040616 157.5678 202.7257 13.87331963163988
COSMOS 2429             
1 32052U 07038A   08107.23237550  .00000103  00000-0  91817-4 0  1922
2 32052  82.9776  54.3610 0039866  41.0569 319.3574 13.74681994 29903
